[
    {
        "Altitude(m)": 559277.7383666993,
        "Argument of Periapsis(deg)": 0.013245982221427002,
        "Eccentricity": 0.0,
        "Inclination(deg)": 53.0,
        "Latitude(deg)": 50.41480471609983,
        "Longitude(deg)": 48.41342415645652,
        "Mean Anomaly(deg)": 105.63778573515518,
        "RAAN(deg)": 34.98028673705603,
        "Satellite Name": "Starlink Shell 1 159",
        "Satellite Number": 159,
        "Semi-Major Axis(m)": 6931778.249405717,
        "Time(s)": 380
    },
    {
        "Altitude(m)": 559228.5013147027,
        "Argument of Periapsis(deg)": 0.013594560700938237,
        "Eccentricity": 0.0,
        "Inclination(deg)": 53.0,
        "Latitude(deg)": 50.19952203527245,
        "Longitude(deg)": 49.29157749327571,
        "Mean Anomaly(deg)": 106.2646169387119,
        "RAAN(deg)": 34.97976796697856,
        "Satellite Name": "Starlink Shell 1 159",
        "Satellite Number": 159,
        "Semi-Major Axis(m)": 6931778.249405717,
        "Time(s)": 390
    },
    {
        "Altitude(m)": 559177.6016438999,
        "Argument of Periapsis(deg)": 0.013943139180449475,
        "Eccentricity": 0.0,
        "Inclination(deg)": 53.0,
        "Latitude(deg)": 49.97702362964377,
        "Longitude(deg)": 50.16136753425212,
        "Mean Anomaly(deg)": 106.8914481422686,
        "RAAN(deg)": 34.97924919690109,
        "Satellite Name": "Starlink Shell 1 159",
        "Satellite Number": 159,
        "Semi-Major Axis(m)": 6931778.249405717,
        "Time(s)": 400
    },
    {
        "Altitude(m)": 559125.0703356209,
        "Argument of Periapsis(deg)": 0.014291717659960712,
        "Eccentricity": 0.0,
        "Inclination(deg)": 53.0,
        "Latitude(deg)": 49.747430947873866,
        "Longitude(deg)": 51.022668270875755,
        "Mean Anomaly(deg)": 107.5182793458253,
        "RAAN(deg)": 34.97873042682362,
        "Satellite Name": "Starlink Shell 1 159",
        "Satellite Number": 159,
        "Semi-Major Axis(m)": 6931778.249405717,
        "Time(s)": 410
    },
    {
        "Altitude(m)": 559070.9393980362,
        "Argument of Periapsis(deg)": 0.014640296139471948,
        "Eccentricity": 0.0,
        "Inclination(deg)": 53.0,
        "Latitude(deg)": 49.51086654326696,
        "Longitude(deg)": 51.875368375565344,
        "Mean Anomaly(deg)": 108.14511054938205,
        "RAAN(deg)": 34.97821165674614,
        "Satellite Name": "Starlink Shell 1 159",
        "Satellite Number": 159,
        "Semi-Major Axis(m)": 6931778.249405717,
        "Time(s)": 420
    },
    {
        "Altitude(m)": 559015.24185043,
        "Argument of Periapsis(deg)": 0.014988874618983185,
        "Eccentricity": 0.0,
        "Inclination(deg)": 53.0,
        "Latitude(deg)": 49.26745383325326,
        "Longitude(deg)": 52.71937131629125,
        "Mean Anomaly(deg)": 108.77194175293876,
        "RAAN(deg)": 34.97769288666867,
        "Satellite Name": "Starlink Shell 1 159",
        "Satellite Number": 159,
        "Semi-Major Axis(m)": 6931778.249405717,
        "Time(s)": 430
    },
    {
        "Altitude(m)": 558958.0117069364,
        "Argument of Periapsis(deg)": 0.015337453098494424,
        "Eccentricity": 0.0,
        "Inclination(deg)": 53.0,
        "Latitude(deg)": 49.01731686863572,
        "Longitude(deg)": 53.55459543373653,
        "Mean Anomaly(deg)": 109.39877295649545,
        "RAAN(deg)": 34.9771741165912,
        "Satellite Name": "Starlink Shell 1 159",
        "Satellite Number": 159,
        "Semi-Major Axis(m)": 6931778.249405717,
        "Time(s)": 440
    },
    {
        "Altitude(m)": 558899.2839598058,
        "Argument of Periapsis(deg)": 0.01568603157800566,
        "Eccentricity": 0.0,
        "Inclination(deg)": 53.0,
        "Latitude(deg)": 48.760580113098435,
        "Longitude(deg)": 54.38097247322369,
        "Mean Anomaly(deg)": 110.0256041600522,
        "RAAN(deg)": 34.976655346513716,
        "Satellite Name": "Starlink Shell 1 159",
        "Satellite Number": 159,
        "Semi-Major Axis(m)": 6931778.249405717,
        "Time(s)": 450
    },
    {
        "Altitude(m)": 558839.0945621519,
        "Argument of Periapsis(deg)": 0.0160346100575169,
        "Eccentricity": 0.0,
        "Inclination(deg)": 53.0,
        "Latitude(deg)": 48.49736823337126,
        "Longitude(deg)": 55.198447602127054,
        "Mean Anomaly(deg)": 110.65243536360889,
        "RAAN(deg)": 34.97613657643625,
        "Satellite Name": "Starlink Shell 1 159",
        "Satellite Number": 159,
        "Semi-Major Axis(m)": 6931778.249405717,
        "Time(s)": 460
    },
    {
        "Altitude(m)": 558777.4804102329,
        "Argument of Periapsis(deg)": 0.016383188537028134,
        "Eccentricity": 0.0,
        "Inclination(deg)": 53.0,
        "Latitude(deg)": 48.22780590033657,
        "Longitude(deg)": 56.006979404679434,
        "Mean Anomaly(deg)": 111.27926656716562,
        "RAAN(deg)": 34.97561780635878,
        "Satellite Name": "Starlink Shell 1 159",
        "Satellite Number": 159,
        "Semi-Major Axis(m)": 6931778.249405717,
        "Time(s)": 470
    },
    {
        "Altitude(m)": 558714.479325228,
        "Argument of Periapsis(deg)": 0.01673176701653937,
        "Eccentricity": 0.0,
        "Inclination(deg)": 53.0,
        "Latitude(deg)": 47.952017601269944,
        "Longitude(deg)": 56.80653834586822,
        "Mean Anomaly(deg)": 111.90609777072234,
        "RAAN(deg)": 34.9750990362813,
        "Satellite Name": "Starlink Shell 1 159",
        "Satellite Number": 159,
        "Semi-Major Axis(m)": 6931778.249405717,
        "Time(s)": 480
    },
    {
        "Altitude(m)": 558650.1300345727,
        "Argument of Periapsis(deg)": 0.017080345496050607,
        "Eccentricity": 0.0,
        "Inclination(deg)": 53.0,
        "Latitude(deg)": 47.67012746332183,
        "Longitude(deg)": 57.59710673449942,
        "Mean Anomaly(deg)": 112.53292897427903,
        "RAAN(deg)": 34.97458026620383,
        "Satellite Name": "Starlink Shell 1 159",
        "Satellite Number": 159,
        "Semi-Major Axis(m)": 6931778.249405717,
        "Time(s)": 490
    },
    {
        "Altitude(m)": 558584.4721528019,
        "Argument of Periapsis(deg)": 0.017428923975561842,
        "Eccentricity": 0.0,
        "Inclination(deg)": 53.0,
        "Latitude(deg)": 47.3822590882597,
        "Longitude(deg)": 58.37867867661723,
        "Mean Anomaly(deg)": 113.15976017783574,
        "RAAN(deg)": 34.97406149612635,
        "Satellite Name": "Starlink Shell 1 159",
        "Satellite Number": 159,
        "Semi-Major Axis(m)": 6931778.249405717,
        "Time(s)": 500
    },
    {
        "Altitude(m)": 558517.5461619614,
        "Argument of Periapsis(deg)": 0.01777750245507308,
        "Eccentricity": 0.0,
        "Inclination(deg)": 53.0,
        "Latitude(deg)": 47.08853539841718,
        "Longitude(deg)": 59.1512585101859,
        "Mean Anomaly(deg)": 113.78659138139247,
        "RAAN(deg)": 34.97354272604888,
        "Satellite Name": "Starlink Shell 1 159",
        "Satellite Number": 159,
        "Semi-Major Axis(m)": 6931778.249405717,
        "Time(s)": 510
    },
    {
        "Altitude(m)": 558449.3933915462,
        "Argument of Periapsis(deg)": 0.018126080934584315,
        "Eccentricity": 0.0,
        "Inclination(deg)": 53.0,
        "Latitude(deg)": 46.789078493733676,
        "Longitude(deg)": 59.914860750275615,
        "Mean Anomaly(deg)": 114.41342258494922,
        "RAAN(deg)": 34.973023955971414,
        "Satellite Name": "Starlink Shell 1 159",
        "Satellite Number": 159,
        "Semi-Major Axis(m)": 6931778.249405717,
        "Time(s)": 520
    },
    {
        "Altitude(m)": 558380.0559980401,
        "Argument of Periapsis(deg)": 0.018474659414095554,
        "Eccentricity": 0.0,
        "Inclination(deg)": 53.0,
        "Latitude(deg)": 46.4840095197034,
        "Longitude(deg)": 60.66951003507367,
        "Mean Anomaly(deg)": 115.04025378850595,
        "RAAN(deg)": 34.97250518589394,
        "Satellite Name": "Starlink Shell 1 159",
        "Satellite Number": 159,
        "Semi-Major Axis(m)": 6931778.249405717,
        "Time(s)": 530
    },
    {
        "Altitude(m)": 558309.5769439716,
        "Argument of Periapsis(deg)": 0.018823237893606792,
        "Eccentricity": 0.0,
        "Inclination(deg)": 53.0,
        "Latitude(deg)": 46.17344854600107,
        "Longitude(deg)": 61.41523956274176,
        "Mean Anomaly(deg)": 115.66708499206261,
        "RAAN(deg)": 34.97198641581647,
        "Satellite Name": "Starlink Shell 1 159",
        "Satellite Number": 159,
        "Semi-Major Axis(m)": 6931778.249405717,
        "Time(s)": 540
    },
    {
        "Altitude(m)": 558237.999976602,
        "Argument of Periapsis(deg)": 0.019171816373118027,
        "Eccentricity": 0.0,
        "Inclination(deg)": 53.0,
        "Latitude(deg)": 45.85751445551072,
        "Longitude(deg)": 62.15209104747466,
        "Mean Anomaly(deg)": 116.29391619561935,
        "RAAN(deg)": 34.971467645739,
        "Satellite Name": "Starlink Shell 1 159",
        "Satellite Number": 159,
        "Semi-Major Axis(m)": 6931778.249405717,
        "Time(s)": 550
    },
    {
        "Altitude(m)": 558165.3696061772,
        "Argument of Periapsis(deg)": 0.019520394852629266,
        "Eccentricity": 0.0,
        "Inclination(deg)": 53.0,
        "Latitude(deg)": 45.536324843440894,
        "Longitude(deg)": 62.88011468419916,
        "Mean Anomaly(deg)": 116.92074739917602,
        "RAAN(deg)": 34.97094887566152,
        "Satellite Name": "Starlink Shell 1 159",
        "Satellite Number": 159,
        "Semi-Major Axis(m)": 6931778.249405717,
        "Time(s)": 560
    }
]